start=new Date('2022-10-28T00:00:00.000Z').valueOf();
sats=[{"MEAN_MOTION":"15.18783277","CENTER_NAME":"EARTH","MEAN_ANOMALY":"49.9103","EPOCH":"2022-10-27T15:20:32.953920","DECAY_DATE":null,"LAUNCH_DATE":"2020-01-07","TIME_SYSTEM":"UTC","GP_ID":"216332100","REV_AT_EPOCH":"15514","ELEMENT_SET_NO":"999","CLASSIFICATION_TYPE":"U","ARG_OF_PERICENTER":"310.1809","ECCENTRICITY":"0.00009380","REF_FRAME":"TEME","PERIOD":"94.813","EPHEMERIS_TYPE":"0","BSTAR":"0.00105710000000","MEAN_MOTION_DOT":"0.00022005","FILE":"3636022","OBJECT_ID":"2020-001AJ","TLE_LINE2":"2 44946  53.0089  62.2893 0000938 310.1809  49.9103 15.18783277155147","MEAN_MOTION_DDOT":"0.0000000000000","INCLINATION":"53.0089","COUNTRY_CODE":"US","APOAPSIS":"510.165","SEMIMAJOR_AXIS":"6887.654","TLE_LINE1":"1 44946U 20001AJ  22300.63927030  .00022005  00000-0  10571-2 0  9992","RCS_SIZE":"LARGE","MEAN_ELEMENT_THEORY":"SGP4","PERIAPSIS":"508.873","RA_OF_ASC_NODE":"62.2893","OBJECT_NAME":"STARLINK-1110","SITE":"AFETR","NORAD_CAT_ID":"44946","OBJECT_TYPE":"PAYLOAD"},{"OBJECT_NAME":"STARLINK-1116","PERIAPSIS":"546.416","MEAN_ELEMENT_THEORY":"SGP4","RA_OF_ASC_NODE":"83.6647","SITE":"AFETR","OBJECT_TYPE":"PAYLOAD","NORAD_CAT_ID":"44947","INCLINATION":"53.0559","COUNTRY_CODE":"US","APOAPSIS":"548.000","SEMIMAJOR_AXIS":"6925.343","RCS_SIZE":"LARGE","TLE_LINE1":"1 44947U 20001AK  22300.72247907  .00002320  00000-0  17455-3 0  9998","ARG_OF_PERICENTER":"89.5538","CLASSIFICATION_TYPE":"U","REV_AT_EPOCH":"15489","ELEMENT_SET_NO":"999","REF_FRAME":"TEME","ECCENTRICITY":"0.00011440","EPHEMERIS_TYPE":"0","PERIOD":"95.592","FILE":"3636022","BSTAR":"0.00017455000000","MEAN_MOTION_DOT":"0.00002320","MEAN_MOTION_DDOT":"0.0000000000000","OBJECT_ID":"2020-001AK","TLE_LINE2":"2 44947  53.0559  83.6647 0001144  89.5538 270.5582 15.06401777154893","MEAN_MOTION":"15.06401777","MEAN_ANOMALY":"270.5582","EPOCH":"2022-10-27T17:20:22.191648","CENTER_NAME":"EARTH","TIME_SYSTEM":"UTC","GP_ID":"216332849","DECAY_DATE":null,"LAUNCH_DATE":"2020-01-07"},{"MEAN_MOTION":"15.06399832","MEAN_ANOMALY":"263.5632","EPOCH":"2022-10-27T16:21:59.465664","CENTER_NAME":"EARTH","GP_ID":"216333097","TIME_SYSTEM":"UTC","DECAY_DATE":null,"LAUNCH_DATE":"2020-01-07","ARG_OF_PERICENTER":"96.5496","CLASSIFICATION_TYPE":"U","REV_AT_EPOCH":"15488","ELEMENT_SET_NO":"999","ECCENTRICITY":"0.00012210","REF_FRAME":"TEME","EPHEMERIS_TYPE":"0","PERIOD":"95.592","FILE":"3636022","BSTAR":"0.00020732000000","MEAN_MOTION_DOT":"0.00002808","MEAN_MOTION_DDOT":"0.0000000000000","TLE_LINE2":"2 44949  53.0555  83.8482 0001221  96.5496 263.5632 15.06399832154882","OBJECT_ID":"2020-001AM","INCLINATION":"53.0555","COUNTRY_CODE":"US","APOAPSIS":"548.060","SEMIMAJOR_AXIS":"6925.349","TLE_LINE1":"1 44949U 20001AM  22300.68193826  .00002808  00000-0  20732-3 0  9998","RCS_SIZE":"LARGE","OBJECT_NAME":"STARLINK-1122","MEAN_ELEMENT_THEORY":"SGP4","PERIAPSIS":"546.368","RA_OF_ASC_NODE":"83.8482","OBJECT_TYPE":"PAYLOAD","SITE":"AFETR","NORAD_CAT_ID":"44949"},{"RCS_SIZE":"LARGE","TLE_LINE1":"1 44950U 20001AN  22300.64895381  .00025771  00000-0  13992-2 0  9994","SEMIMAJOR_AXIS":"6900.978","APOAPSIS":"523.309","COUNTRY_CODE":"US","INCLINATION":"53.0501","SITE":"AFETR","OBJECT_TYPE":"PAYLOAD","NORAD_CAT_ID":"44950","OBJECT_NAME":"STARLINK-1125","RA_OF_ASC_NODE":"77.8734","PERIAPSIS":"522.377","MEAN_ELEMENT_THEORY":"SGP4","TIME_SYSTEM":"UTC","GP_ID":"216333851","LAUNCH_DATE":"2020-01-07","DECAY_DATE":null,"EPOCH":"2022-10-27T15:34:29.609184","MEAN_ANOMALY":"64.5549","CENTER_NAME":"EARTH","MEAN_MOTION":"15.14386770","MEAN_MOTION_DDOT":"0.0000000000000","OBJECT_ID":"2020-001AN","TLE_LINE2":"2 44950  53.0501  77.8734 0000675 295.5373  64.5549 15.14386770154966","FILE":"3636022","MEAN_MOTION_DOT":"0.00025771","BSTAR":"0.00139920000000","PERIOD":"95.088","EPHEMERIS_TYPE":"0","REF_FRAME":"TEME","ECCENTRICITY":"0.00006750","ARG_OF_PERICENTER":"295.5373","REV_AT_EPOCH":"15496","CLASSIFICATION_TYPE":"U","ELEMENT_SET_NO":"999"},{"RA_OF_ASC_NODE":"63.4491","MEAN_ELEMENT_THEORY":"SGP4","PERIAPSIS":"509.641","OBJECT_NAME":"STARLINK-1126","SITE":"AFETR","NORAD_CAT_ID":"44951","OBJECT_TYPE":"PAYLOAD","SEMIMAJOR_AXIS":"6888.424","RCS_SIZE":"LARGE","TLE_LINE1":"1 44951U 20001AP  22300.62877123  .00022500  00000-0  10884-2 0  9991","COUNTRY_CODE":"US","INCLINATION":"53.0084","APOAPSIS":"510.936","MEAN_MOTION_DOT":"0.00022500","BSTAR":"0.00108840000000","FILE":"3636022","TLE_LINE2":"2 44951  53.0084  63.4491 0000940 314.5963  45.4954 15.18528534156416","OBJECT_ID":"2020-001AP","MEAN_MOTION_DDOT":"0.0000000000000","ELEMENT_SET_NO":"999","CLASSIFICATION_TYPE":"U","REV_AT_EPOCH":"15641","ARG_OF_PERICENTER":"314.5963","PERIOD":"94.829","EPHEMERIS_TYPE":"0","ECCENTRICITY":"0.00009400","REF_FRAME":"TEME","DECAY_DATE":null,"LAUNCH_DATE":"2020-01-07","GP_ID":"216332599","TIME_SYSTEM":"UTC","MEAN_MOTION":"15.18528534","CENTER_NAME":"EARTH","EPOCH":"2022-10-27T15:05:25.834272","MEAN_ANOMALY":"45.4954"},{"SEMIMAJOR_AXIS":"6925.399","TLE_LINE1":"1 44952U 20001AQ  22300.53082477 -.00001146  00000-0 -58090-4 0  9990","RCS_SIZE":"LARGE","INCLINATION":"53.0554","COUNTRY_CODE":"US","APOAPSIS":"548.211","OBJECT_NAME":"STARLINK-1117","MEAN_ELEMENT_THEORY":"SGP4","PERIAPSIS":"546.318","RA_OF_ASC_NODE":"84.5363","SITE":"AFETR","OBJECT_TYPE":"PAYLOAD","NORAD_CAT_ID":"44952","GP_ID":"216332350","TIME_SYSTEM":"UTC","LAUNCH_DATE":"2020-01-07","DECAY_DATE":null,"MEAN_MOTION":"15.06383439","EPOCH":"2022-10-27T12:44:23.260128","MEAN_ANOMALY":"247.4415","CENTER_NAME":"EARTH","FILE":"3636022","BSTAR":"-0.00005809000000","MEAN_MOTION_DOT":"-0.00001146","MEAN_MOTION_DDOT":"0.0000000000000","TLE_LINE2":"2 44952  53.0554  84.5363 0001367 112.6718 247.4415 15.06383439154863","OBJECT_ID":"2020-001AQ","ARG_OF_PERICENTER":"112.6718","REV_AT_EPOCH":"15486","ELEMENT_SET_NO":"999","CLASSIFICATION_TYPE":"U","REF_FRAME":"TEME","ECCENTRICITY":"0.00013670","EPHEMERIS_TYPE":"0","PERIOD":"95.593"},{"MEAN_MOTION":"15.06406328","CENTER_NAME":"EARTH","EPOCH":"2022-10-27T19:31:42.856608","MEAN_ANOMALY":"256.0416","DECAY_DATE":null,"LAUNCH_DATE":"2020-01-07","TIME_SYSTEM":"UTC","GP_ID":"216333597","ELEMENT_SET_NO":"999","REV_AT_EPOCH":"15619","CLASSIFICATION_TYPE":"U","ARG_OF_PERICENTER":"104.0692","REF_FRAME":"TEME","ECCENTRICITY":"0.00010680","PERIOD":"95.592","EPHEMERIS_TYPE":"0","BSTAR":"0.00007718000000","MEAN_MOTION_DOT":"0.00000869","FILE":"3636022","TLE_LINE2":"2 44953  53.0579  83.2654 0001068 104.0692 256.0416 15.06406328156192","OBJECT_ID":"2020-001AR","MEAN_MOTION_DDOT":"0.0000000000000","INCLINATION":"53.0579","COUNTRY_CODE":"US","APOAPSIS":"547.934","SEMIMAJOR_AXIS":"6925.329","RCS_SIZE":"LARGE","TLE_LINE1":"1 44953U 20001AR  22300.81369047  .00000869  00000-0  77180-4 0  9993","PERIAPSIS":"546.455","MEAN_ELEMENT_THEORY":"SGP4","RA_OF_ASC_NODE":"83.2654","OBJECT_NAME":"STARLINK-1124","NORAD_CAT_ID":"44953","SITE":"AFETR","OBJECT_TYPE":"PAYLOAD"},{"CLASSIFICATION_TYPE":"U","REV_AT_EPOCH":"15510","ELEMENT_SET_NO":"999","ARG_OF_PERICENTER":"95.9347","EPHEMERIS_TYPE":"0","PERIOD":"95.592","REF_FRAME":"TEME","ECCENTRICITY":"0.00017790","MEAN_MOTION_DOT":"0.00002407","BSTAR":"0.00018037000000","FILE":"3635758","OBJECT_ID":"2020-001AS","TLE_LINE2":"2 44954  53.0535  64.1011 0001779  95.9347 264.1845 15.06410012155105","MEAN_MOTION_DDOT":"0.0000000000000","MEAN_MOTION":"15.06410012","CENTER_NAME":"EARTH","EPOCH":"2022-10-27T15:05:01.553280","MEAN_ANOMALY":"264.1845","LAUNCH_DATE":"2020-01-07","DECAY_DATE":null,"GP_ID":"216302102","TIME_SYSTEM":"UTC","RA_OF_ASC_NODE":"64.1011","PERIAPSIS":"545.951","MEAN_ELEMENT_THEORY":"SGP4","OBJECT_NAME":"STARLINK-1066","NORAD_CAT_ID":"44954","SITE":"AFETR","OBJECT_TYPE":"PAYLOAD","COUNTRY_CODE":"US","INCLINATION":"53.0535","APOAPSIS":"548.415","SEMIMAJOR_AXIS":"6925.318","RCS_SIZE":"LARGE","TLE_LINE1":"1 44954U 20001AS  22300.62849020  .00002407  00000-0  18037-3 0  9992"},{"TLE_LINE1":"1 44955U 20001AT  22300.63586931  .00001953  00000-0  14998-3 0  9990","RCS_SIZE":"LARGE","SEMIMAJOR_AXIS":"6925.366","APOAPSIS":"548.090","COUNTRY_CODE":"US","INCLINATION":"53.0554","SITE":"AFETR","NORAD_CAT_ID":"44955","OBJECT_TYPE":"PAYLOAD","OBJECT_NAME":"STARLINK-1069","RA_OF_ASC_NODE":"64.0505","PERIAPSIS":"546.372","MEAN_ELEMENT_THEORY":"SGP4","TIME_SYSTEM":"UTC","GP_ID":"216332101","DECAY_DATE":null,"LAUNCH_DATE":"2020-01-07","MEAN_ANOMALY":"278.5935","EPOCH":"2022-10-27T15:15:39.108384","CENTER_NAME":"EARTH","MEAN_MOTION":"15.06394320","MEAN_MOTION_DDOT":"0.0000000000000","TLE_LINE2":"2 44955  53.0554  64.0505 0001241  81.5195 278.5935 15.06394320155102","OBJECT_ID":"2020-001AT","FILE":"3636022","MEAN_MOTION_DOT":"0.00001953","BSTAR":"0.00014998000000","EPHEMERIS_TYPE":"0","PERIOD":"95.593","REF_FRAME":"TEME","ECCENTRICITY":"0.00012410","ARG_OF_PERICENTER":"81.5195","ELEMENT_SET_NO":"999","CLASSIFICATION_TYPE":"U","REV_AT_EPOCH":"15510"},{"GP_ID":"216332850","TIME_SYSTEM":"UTC","DECAY_DATE":null,"LAUNCH_DATE":"2020-01-07","EPOCH":"2022-10-27T18:20:02.708736","MEAN_ANOMALY":"251.6690","CENTER_NAME":"EARTH","MEAN_MOTION":"15.06412666","MEAN_MOTION_DDOT":"0.0000000000000","TLE_LINE2":"2 44956  53.0546  63.4601 0001123 108.4421 251.6690 15.06412666155186","OBJECT_ID":"2020-001AU","FILE":"3636022","BSTAR":"0.00022189000000","MEAN_MOTION_DOT":"0.00003026","REF_FRAME":"TEME","ECCENTRICITY":"0.00011230","EPHEMERIS_TYPE":"0","PERIOD":"95.591","ARG_OF_PERICENTER":"108.4421","CLASSIFICATION_TYPE":"U","ELEMENT_SET_NO":"999","REV_AT_EPOCH":"15518","TLE_LINE1":"1 44956U 20001AU  22300.76392024  .00003026  00000-0  22189-3 0  9997","RCS_SIZE":"LARGE","SEMIMAJOR_AXIS":"6925.310","APOAPSIS":"547.952","INCLINATION":"53.0546","COUNTRY_CODE":"US","NORAD_CAT_ID":"44956","SITE":"AFETR","OBJECT_TYPE":"PAYLOAD","OBJECT_NAME":"STARLINK-1070","MEAN_ELEMENT_THEORY":"SGP4","PERIAPSIS":"546.397","RA_OF_ASC_NODE":"63.4601"}];
